CSS (TIANHE)            
1 48274U 21035A   24073.10544584  .00032780  00000+0  35285-3 0  9998
2 48274  41.4677 310.3318 0008790 162.1980 197.9169 15.62975795164050
